NORAD_CAT_ID,OBJECT_NAME,OBJECT_TYPE,EPOCH,MEAN_MOTION,ECCENTRICITY,INCLINATION,RA_OF_ASC_NODE,ARG_OF_PERICENTER,MEAN_ANOMALY,BSTAR,MEAN_MOTION_DOT,MEAN_MOTION_DDOT,TLE_LINE0,TLE_LINE1,TLE_LINE2,SEMIMAJOR_AXIS,PERIOD,APOGEE,PERIGEE,DECAYED
53850.0,STARLINK-4767,PAYLOAD,2023-09-22 17:21:28,15.08869743,0.0001163,53.2185,9.3537,89.0453,271.0672,0.0011802,0.0001856,0.0,0 STARLINK-4767,1 53850U 22114AJ  23265.72324263  .00018560  00000-0  11802-2 0  9992,2 53850  53.2185   9.3537 0001163  89.0453 271.0672 15.08869743 56720,6917.789,95.436,540.459,538.85,0.0
53850.0,STARLINK-4767,PAYLOAD,2023-09-22 23:43:00,15.08854981,0.0001118,53.2186,8.1643,97.2705,262.8415,0.0013088,0.00020611,0.0,0 STARLINK-4767,1 53850U 22114AJ  23265.98820581  .00020611  00000-0  13088-2 0  9992,2 53850  53.2186   8.1643 0001118  97.2705 262.8415 15.08854981 56762,6917.835,95.437,540.473,538.926,0.0
53850.0,STARLINK-4767,PAYLOAD,2023-09-23 12:26:05,15.0885332,0.0001137,53.2181,5.7853,103.6635,256.4483,0.00063836,9.89e-05,0.0,0 STARLINK-4767,1 53850U 22114AJ  23266.51812405  .00009890  00000-0  63836-3 0  9991,2 53850  53.2181   5.7853 0001137 103.6635 256.4483 15.08853320 56847,6917.84,95.437,540.491,538.918,0.0
53850.0,STARLINK-4767,PAYLOAD,2023-09-24 10:41:30,15.08858708,0.0001276,53.2183,1.6221,76.5404,283.573,0.0011067,0.00017378,0.0,0 STARLINK-4767,1 53850U 22114AJ  23267.44548683  .00017378  00000-0  11067-2 0  9996,2 53850  53.2183   1.6221 0001276  76.5404 283.5730 15.08858708 56985,6917.823,95.436,540.571,538.805,0.0
53850.0,STARLINK-4767,PAYLOAD,2023-09-24 13:52:16,15.088597,0.0001166,53.2174,1.0277,94.4436,265.6689,0.0012541,0.00019738,0.0,0 STARLINK-4767,1 53850U 22114AJ  23267.57796472  .00019738  00000-0  12541-2 0  9991,2 53850  53.2174   1.0277 0001166  94.4436 265.6689 15.08859700 57542,6917.82,95.436,540.492,538.879,0.0
53850.0,STARLINK-4767,PAYLOAD,2023-09-25 05:46:07,15.0885103,0.0001412,53.2165,358.0567,97.5639,262.5513,0.0023016,0.00036543,0.0,0 STARLINK-4767,1 53850U 22114AJ  23268.24036823  .00036543  00000-0  23016-2 0  9995,2 53850  53.2165 358.0567 0001412  97.5639 262.5513 15.08851030 57104,6917.847,95.437,540.688,538.735,0.0
53850.0,STARLINK-4767,PAYLOAD,2023-09-25 13:43:03,15.08853878,0.0001392,53.2173,356.5693,96.1697,263.9454,0.0010004,0.00015675,0.0,0 STARLINK-4767,1 53850U 22114AJ  23268.57156556  .00015675  00000-0  10004-2 0  9993,2 53850  53.2173 356.5693 0001392  96.1697 263.9454 15.08853878 57697,6917.838,95.437,540.666,538.74,0.0
53850.0,STARLINK-4767,PAYLOAD,2023-09-26 10:23:03,15.08851021,0.0001592,53.2174,352.7019,100.7569,259.3602,0.00062412,9.662e-05,0.0,0 STARLINK-4767,1 53850U 22114AJ  23269.43268398  .00009662  00000-0  62412-3 0  9997,2 53850  53.2174 352.7019 0001592 100.7569 259.3602 15.08851021 57287,6917.847,95.437,540.813,538.61,0.0
53850.0,STARLINK-4767,PAYLOAD,2023-09-26 11:58:26,15.0885617,0.0001492,53.2177,352.4045,99.9615,260.1546,0.00088649,0.00013855,0.0,0 STARLINK-4767,1 53850U 22114AJ  23269.49892325  .00013855  00000-0  88649-3 0  9995,2 53850  53.2177 352.4045 0001492  99.9615 260.1546 15.08856170 57834,6917.831,95.437,540.728,538.664,0.0
53850.0,STARLINK-4767,PAYLOAD,2023-09-27 08:38:28,15.08837499,0.0001488,53.218,348.5379,102.6783,257.4375,0.0004708,7.212e-05,0.0,0 STARLINK-4767,1 53850U 22114AJ  23270.36004685  .00007212  00000-0  47080-3 0  9991,2 53850  53.2180 348.5379 0001488 102.6783 257.4375 15.08837499 57424,6917.888,95.438,540.782,538.724,0.0
53850.0,STARLINK-4767,PAYLOAD,2023-09-27 11:49:14,15.08839587,0.0001465,53.2181,347.9435,96.5959,263.52,0.00026605,3.949e-05,0.0,0 STARLINK-4767,1 53850U 22114AJ  23270.49252683  .00003949  00000-0  26605-3 0  9991,2 53850  53.2181 347.9435 0001465  96.5959 263.5200 15.08839587 57988,6917.882,95.438,540.76,538.733,0.0
53850.0,STARLINK-4767,PAYLOAD,2023-09-28 11:40:01,15.08835284,0.000156,53.2186,343.484,99.8491,260.2677,-2.7541e-05,-7.26e-06,0.0,0 STARLINK-4767,1 53850U 22114AJ  23271.48613410 -.00000726  00000-0 -27541-4 0  9993,2 53850  53.2186 343.4840 0001560  99.8491 260.2677 15.08835284 57596,6917.895,95.438,540.839,538.681,0.0
53850.0,STARLINK-4767,PAYLOAD,2023-09-29 11:30:49,15.08836933,0.0001583,53.2192,339.025,99.9781,260.139,0.0001443,2.009e-05,0.0,0 STARLINK-4767,1 53850U 22114AJ  23272.47973702  .00002009  00000-0  14430-3 0  9992,2 53850  53.2192 339.0250 0001583  99.9781 260.1390 15.08836933 58287,6917.89,95.438,540.85,538.66,0.0
53850.0,STARLINK-4767,PAYLOAD,2023-09-30 11:21:35,15.08854697,0.0001539,53.2183,334.5658,97.6995,262.4172,0.00033903,5.114e-05,0.0,0 STARLINK-4767,1 53850U 22114AJ  23273.47332870  .00005114  00000-0  33903-3 0  9994,2 53850  53.2183 334.5658 0001539  97.6995 262.4172 15.08854697 57898,6917.835,95.437,540.765,538.636,0.0
53850.0,STARLINK-4767,PAYLOAD,2023-10-01 03:15:27,15.08845024,0.0002165,53.2183,331.59,93.18,266.944,5.3212e-05,5.59e-06,0.0,0 STARLINK-4767,1 53850U 22114AJ  23274.13573236  .00000559  00000-0  53212-4 0  9995,2 53850  53.2183 331.5900 0002165  93.1800 266.9440 15.08845024 57999,6917.865,95.437,541.228,538.232,0.0
53850.0,STARLINK-4767,PAYLOAD,2023-10-01 12:47:45,15.0884533,0.0001768,53.2186,329.8067,85.0868,275.0326,5.5175e-05,5.9e-06,0.0,0 STARLINK-4767,1 53850U 22114AJ  23274.53317098  .00000590  00000-0  55175-4 0  9996,2 53850  53.2186 329.8067 0001768  85.0868 275.0326 15.08845330 58599,6917.864,95.437,540.952,538.506,0.0
53850.0,STARLINK-4767,PAYLOAD,2023-10-01 20:44:42,15.08832733,0.0001867,53.2176,328.3192,83.3684,276.7521,-0.00018643,-3.253e-05,0.0,0 STARLINK-4767,1 53850U 22114AJ  23274.86437578 -.00003253  00000-0 -18643-3 0  9997,2 53850  53.2176 328.3192 0001867  83.3684 276.7521 15.08832733 58642,6917.903,95.438,541.059,538.476,0.0
53850.0,STARLINK-4767,PAYLOAD,2023-10-02 20:35:29,15.08838863,0.0001531,53.2164,323.8598,85.5159,274.6008,0.00017723,2.534e-05,0.0,0 STARLINK-4767,1 53850U 22114AJ  23275.85797961  .00002534  00000-0  17723-3 0  9999,2 53850  53.2164 323.8598 0001531  85.5159 274.6008 15.08838863 58791,6917.884,95.438,540.808,538.69,0.0
53850.0,STARLINK-4767,PAYLOAD,2023-10-03 02:57:02,15.08838664,0.0001531,53.2163,322.6697,83.8853,276.2313,0.00028452,4.243e-05,0.0,0 STARLINK-4767,1 53850U 22114AJ  23276.12294138  .00004243  00000-0  28452-3 0  9998,2 53850  53.2163 322.6697 0001531  83.8853 276.2313 15.08838664 58290,6917.884,95.438,540.809,538.69,0.0
53850.0,STARLINK-4767,PAYLOAD,2023-10-03 09:18:34,15.08851361,0.000157,53.2172,321.4789,91.8012,268.316,0.00056425,8.706e-05,0.0,0 STARLINK-4767,1 53850U 22114AJ  23276.38789765  .00008706  00000-0  56425-3 0  9990,2 53850  53.2172 321.4789 0001570  91.8012 268.3160 15.08851361 58334,6917.846,95.437,540.797,538.625,0.0
53850.0,STARLINK-4767,PAYLOAD,2023-10-03 15:40:06,15.08857687,0.0001475,53.2155,320.2892,90.4391,269.677,0.00068072,0.00010567,0.0,0 STARLINK-4767,1 53850U 22114AJ  23276.65285512  .00010567  00000-0  68072-3 0  9990,2 53850  53.2155 320.2892 0001475  90.4391 269.6770 15.08857687 58918,6917.826,95.436,540.712,538.671,0.0
53850.0,STARLINK-4767,PAYLOAD,2023-10-04 09:09:21,15.08845729,0.0001591,53.2158,317.019,82.4782,277.6391,0.00046934,7.191e-05,0.0,0 STARLINK-4767,1 53850U 22114AJ  23277.38150038  .00007191  00000-0  46934-3 0  9997,2 53850  53.2158 317.0190 0001591  82.4782 277.6391 15.08845729 58484,6917.863,95.437,540.829,538.627,0.0
53850.0,STARLINK-4767,PAYLOAD,2023-10-05 09:00:08,15.08850196,0.0001845,53.2168,312.5583,85.9104,274.2099,0.00058605,9.054e-05,0.0,0 STARLINK-4767,1 53850U 22114AJ  23278.37510139  .00009054  00000-0  58605-3 0  9997,2 53850  53.2168 312.5583 0001845  85.9104 274.2099 15.08850196 58638,6917.849,95.437,540.991,538.438,0.0
53850.0,STARLINK-4767,PAYLOAD,2023-10-05 12:10:54,15.08854928,0.0001794,53.216,311.9635,85.7371,274.3827,0.00067887,0.00010537,0.0,0 STARLINK-4767,1 53850U 22114AJ  23278.50757981  .00010537  00000-0  67887-3 0  9990,2 53850  53.2160 311.9635 0001794  85.7371 274.3827 15.08854928 59197,6917.835,95.437,540.941,538.459,0.0
53850.0,STARLINK-4767,PAYLOAD,2023-10-06 02:29:23,15.08842482,0.0001429,53.2172,309.2881,81.9088,278.2066,0.00017694,2.529e-05,0.0,0 STARLINK-4767,1 53850U 22114AJ  23279.10374133  .00002529  00000-0  17694-3 0  9994,2 53850  53.2172 309.2881 0001429  81.9088 278.2066 15.08842482 58741,6917.873,95.437,540.726,538.749,0.0
53850.0,STARLINK-4767,PAYLOAD,2023-10-06 12:01:41,15.08854745,0.0001611,53.2167,307.5026,87.3908,272.7269,0.00057316,8.849e-05,0.0,0 STARLINK-4767,1 53850U 22114AJ  23279.50117798  .00008849  00000-0  57316-3 0  9996,2 53850  53.2167 307.5026 0001611  87.3908 272.7269 15.08854745 59347,6917.835,95.437,540.815,538.586,0.0
53850.0,STARLINK-4767,PAYLOAD,2023-10-07 02:20:10,15.0883583,0.0001348,53.2169,304.8264,89.6823,270.4324,6.0444e-05,6.74e-06,0.0,0 STARLINK-4767,1 53850U 22114AJ  23280.09734243  .00000674  00000-0  60444-4 0  9997,2 53850  53.2169 304.8264 0001348  89.6823 270.4324 15.08835830 58891,6917.893,95.438,540.691,538.826,0.0
53850.0,STARLINK-4767,PAYLOAD,2023-10-07 08:41:42,15.08847766,0.0001485,53.2171,303.6379,92.9761,267.1401,0.00045365,6.941e-05,0.0,0 STARLINK-4767,1 53850U 22114AJ  23280.36230167  .00006941  00000-0  45365-3 0  9990,2 53850  53.2171 303.6379 0001485  92.9761 267.1401 15.08847766 59473,6917.857,95.437,540.749,538.694,0.0
53850.0,STARLINK-4767,PAYLOAD,2023-10-07 18:14:01,15.0884321,0.0001641,53.2173,301.8535,90.6805,269.4375,0.00028993,4.33e-05,0.0,0 STARLINK-4767,1 53850U 22114AJ  23280.75974267  .00004330  00000-0  28993-3 0  9997,2 53850  53.2173 301.8535 0001641  90.6805 269.4375 15.08843210 59539,6917.871,95.437,540.871,538.6,0.0
53850.0,STARLINK-4767,PAYLOAD,2023-10-08 06:57:07,15.0883634,0.0001879,53.2181,299.4767,100.7542,259.3662,4.1644e-05,3.75e-06,0.0,0 STARLINK-4767,1 53850U 22114AJ  23281.28966662  .00000375  00000-0  41644-4 0  9990,2 53850  53.2181 299.4767 0001879 100.7542 259.3662 15.08836340 59073,6917.892,95.438,541.056,538.457,0.0
